STARLINK-36713          
1 67701U 26025J   26046.91668981 -.01373150  60023-3 -24880-2 0  9992
2 67701  97.2786 157.2346 0001578  61.9655 178.1459 16.01603953  2509
STARLINK-36695          
1 67702U 26025K   26046.91668981 -.01371415  59995-3 -24614-2 0  9996
2 67702  97.2785 157.2362 0001550  68.8952 174.1985 16.01767994  2341
STARLINK-36630          
1 67703U 26025L   26046.91668981 -.01364138  59519-3 -24251-2 0  9990
2 67703  97.2784 157.2375 0001587  71.0579 174.9513 16.01931702  2341
STARLINK-36338          
1 67704U 26025M   26046.91668981 -.01352528  58740-3 -23723-2 0  9999
2 67704  97.2783 157.2391 0001545  74.5383 175.2100 16.02162427  2396
STARLINK-36316          
1 67705U 26025N   26046.91668981 -.01332400  57435-3 -22753-2 0  9999
2 67705  97.2779 157.2426 0001505  71.1401 186.1246 16.02619012  2390
STARLINK-36707          
1 67706U 26025P   26046.91668981 -.01326490  57126-3 -22331-2 0  9991
2 67706  97.2777 157.2438 0001368  76.8651 184.2883 16.02862563  2182
STARLINK-36645          
1 67707U 26025Q   26046.91668981 -.01344653  58288-3 -23222-2 0  9993
2 67707  97.2779 157.2404 0001422  73.3498 180.6749 16.02428048  1951
STARLINK-36287          
1 67708U 26025R   26046.91668981 -.01313268  56210-3 -21843-2 0  9992
2 67708  97.2775 157.2448 0001458  71.7216 192.8208 16.03065757  2507
STARLINK-36698          
1 67709U 26025S   26046.91668981 -.01273826  53623-3 -20213-2 0  9993
2 67709  97.2772 157.2507 0001372  75.7313 201.4797 16.03857373  2343
STARLINK-36344          
1 67710U 26025T   26046.91668981 -.01289620  54544-3 -21068-2 0  9996
2 67710  97.2775 157.2477 0001463  67.7514 201.6132 16.03367121  2509
STARLINK-36687          
1 67711U 26025U   26046.91668981 -.01283757  54230-3 -20692-2 0  9996
2 67711  97.2773 157.2488 0001472  70.2793 202.7741 16.03594220  2508
STARLINK-36705          
1 67712U 26025V   26046.91668981 -.01252671  52153-3 -19557-2 0  9998
2 67712  97.2767 157.2522 0001342  66.4237 215.0973 16.04126670  2401
