CCSDS_OMM_VERS = 2.0
CREATION_DATE  = 
ORIGINATOR     = 

OBJECT_NAME    = STARLINK-36713
OBJECT_ID      = 2026-025J
CENTER_NAME    = EARTH
REF_FRAME      = TEME
TIME_SYSTEM    = UTC
MEAN_ELEMENT_THEORY = SGP/SGP4

EPOCH          = 2026-02-15T22:00:01.999584
MEAN_MOTION    = 16.01603953
ECCENTRICITY   = .00015789
INCLINATION    = 97.2786
RA_OF_ASC_NODE = 157.2346
ARG_OF_PERICENTER = 61.9655
MEAN_ANOMALY   = 178.1459

EPHEMERIS_TYPE = 0
CLASSIFICATION_TYPE = U
NORAD_CAT_ID   = 67701
ELEMENT_SET_NO = 999
REV_AT_EPOCH   = 250
BSTAR          = -.24879835E-2
MEAN_MOTION_DOT = -.137315E-1
MEAN_MOTION_DDOT = .60023317E-3

CCSDS_OMM_VERS = 2.0
CREATION_DATE  = 
ORIGINATOR     = 

OBJECT_NAME    = STARLINK-36695
OBJECT_ID      = 2026-025K
CENTER_NAME    = EARTH
REF_FRAME      = TEME
TIME_SYSTEM    = UTC
MEAN_ELEMENT_THEORY = SGP/SGP4

EPOCH          = 2026-02-15T22:00:01.999584
MEAN_MOTION    = 16.01767994
ECCENTRICITY   = .00015509
INCLINATION    = 97.2785
RA_OF_ASC_NODE = 157.2362
ARG_OF_PERICENTER = 68.8952
MEAN_ANOMALY   = 174.1985

EPHEMERIS_TYPE = 0
CLASSIFICATION_TYPE = U
NORAD_CAT_ID   = 67702
ELEMENT_SET_NO = 999
REV_AT_EPOCH   = 234
BSTAR          = -.24613995E-2
MEAN_MOTION_DOT = -.1371415E-1
MEAN_MOTION_DDOT = .59995499E-3

CCSDS_OMM_VERS = 2.0
CREATION_DATE  = 
ORIGINATOR     = 

OBJECT_NAME    = STARLINK-36630
OBJECT_ID      = 2026-025L
CENTER_NAME    = EARTH
REF_FRAME      = TEME
TIME_SYSTEM    = UTC
MEAN_ELEMENT_THEORY = SGP/SGP4

EPOCH          = 2026-02-15T22:00:01.999584
MEAN_MOTION    = 16.01931702
ECCENTRICITY   = .00015875
INCLINATION    = 97.2784
RA_OF_ASC_NODE = 157.2375
ARG_OF_PERICENTER = 71.0579
MEAN_ANOMALY   = 174.9513

EPHEMERIS_TYPE = 0
CLASSIFICATION_TYPE = U
NORAD_CAT_ID   = 67703
ELEMENT_SET_NO = 999
REV_AT_EPOCH   = 234
BSTAR          = -.24251019E-2
MEAN_MOTION_DOT = -.1364138E-1
MEAN_MOTION_DDOT = .59519146E-3

CCSDS_OMM_VERS = 2.0
CREATION_DATE  = 
ORIGINATOR     = 

OBJECT_NAME    = STARLINK-36338
OBJECT_ID      = 2026-025M
CENTER_NAME    = EARTH
REF_FRAME      = TEME
TIME_SYSTEM    = UTC
MEAN_ELEMENT_THEORY = SGP/SGP4

EPOCH          = 2026-02-15T22:00:01.999584
MEAN_MOTION    = 16.02162427
ECCENTRICITY   = .00015451
INCLINATION    = 97.2783
RA_OF_ASC_NODE = 157.2391
ARG_OF_PERICENTER = 74.5383
MEAN_ANOMALY   = 175.2100

EPHEMERIS_TYPE = 0
CLASSIFICATION_TYPE = U
NORAD_CAT_ID   = 67704
ELEMENT_SET_NO = 999
REV_AT_EPOCH   = 239
BSTAR          = -.23722935E-2
MEAN_MOTION_DOT = -.1352528E-1
MEAN_MOTION_DDOT = .58740378E-3

CCSDS_OMM_VERS = 2.0
CREATION_DATE  = 
ORIGINATOR     = 

OBJECT_NAME    = STARLINK-36316
OBJECT_ID      = 2026-025N
CENTER_NAME    = EARTH
REF_FRAME      = TEME
TIME_SYSTEM    = UTC
MEAN_ELEMENT_THEORY = SGP/SGP4

EPOCH          = 2026-02-15T22:00:01.999584
MEAN_MOTION    = 16.02619012
ECCENTRICITY   = .00015053
INCLINATION    = 97.2779
RA_OF_ASC_NODE = 157.2426
ARG_OF_PERICENTER = 71.1401
MEAN_ANOMALY   = 186.1246

EPHEMERIS_TYPE = 0
CLASSIFICATION_TYPE = U
NORAD_CAT_ID   = 67705
ELEMENT_SET_NO = 999
REV_AT_EPOCH   = 239
BSTAR          = -.22752827E-2
MEAN_MOTION_DOT = -.13324E-1
MEAN_MOTION_DDOT = .57435202E-3

CCSDS_OMM_VERS = 2.0
CREATION_DATE  = 
ORIGINATOR     = 

OBJECT_NAME    = STARLINK-36707
OBJECT_ID      = 2026-025P
CENTER_NAME    = EARTH
REF_FRAME      = TEME
TIME_SYSTEM    = UTC
MEAN_ELEMENT_THEORY = SGP/SGP4

EPOCH          = 2026-02-15T22:00:01.999584
MEAN_MOTION    = 16.02862563
ECCENTRICITY   = .00013688
INCLINATION    = 97.2777
RA_OF_ASC_NODE = 157.2438
ARG_OF_PERICENTER = 76.8651
MEAN_ANOMALY   = 184.2883

EPHEMERIS_TYPE = 0
CLASSIFICATION_TYPE = U
NORAD_CAT_ID   = 67706
ELEMENT_SET_NO = 999
REV_AT_EPOCH   = 218
BSTAR          = -.22330781E-2
MEAN_MOTION_DOT = -.132649E-1
MEAN_MOTION_DDOT = .57126174E-3

CCSDS_OMM_VERS = 2.0
CREATION_DATE  = 
ORIGINATOR     = 

OBJECT_NAME    = STARLINK-36645
OBJECT_ID      = 2026-025Q
CENTER_NAME    = EARTH
REF_FRAME      = TEME
TIME_SYSTEM    = UTC
MEAN_ELEMENT_THEORY = SGP/SGP4

EPOCH          = 2026-02-15T22:00:01.999584
MEAN_MOTION    = 16.02428048
ECCENTRICITY   = .00014223
INCLINATION    = 97.2779
RA_OF_ASC_NODE = 157.2404
ARG_OF_PERICENTER = 73.3498
MEAN_ANOMALY   = 180.6749

EPHEMERIS_TYPE = 0
CLASSIFICATION_TYPE = U
NORAD_CAT_ID   = 67707
ELEMENT_SET_NO = 999
REV_AT_EPOCH   = 195
BSTAR          = -.23222125E-2
MEAN_MOTION_DOT = -.1344653E-1
MEAN_MOTION_DDOT = .58287576E-3

CCSDS_OMM_VERS = 2.0
CREATION_DATE  = 
ORIGINATOR     = 

OBJECT_NAME    = STARLINK-36287
OBJECT_ID      = 2026-025R
CENTER_NAME    = EARTH
REF_FRAME      = TEME
TIME_SYSTEM    = UTC
MEAN_ELEMENT_THEORY = SGP/SGP4

EPOCH          = 2026-02-15T22:00:01.999584
MEAN_MOTION    = 16.03065757
ECCENTRICITY   = .00014586
INCLINATION    = 97.2775
RA_OF_ASC_NODE = 157.2448
ARG_OF_PERICENTER = 71.7216
MEAN_ANOMALY   = 192.8208

EPHEMERIS_TYPE = 0
CLASSIFICATION_TYPE = U
NORAD_CAT_ID   = 67708
ELEMENT_SET_NO = 999
REV_AT_EPOCH   = 250
BSTAR          = -.21843286E-2
MEAN_MOTION_DOT = -.1313268E-1
MEAN_MOTION_DDOT = .56209934E-3

CCSDS_OMM_VERS = 2.0
CREATION_DATE  = 
ORIGINATOR     = 

OBJECT_NAME    = STARLINK-36698
OBJECT_ID      = 2026-025S
CENTER_NAME    = EARTH
REF_FRAME      = TEME
TIME_SYSTEM    = UTC
MEAN_ELEMENT_THEORY = SGP/SGP4

EPOCH          = 2026-02-15T22:00:01.999584
MEAN_MOTION    = 16.03857373
ECCENTRICITY   = .00013727
INCLINATION    = 97.2772
RA_OF_ASC_NODE = 157.2507
ARG_OF_PERICENTER = 75.7313
MEAN_ANOMALY   = 201.4797

EPHEMERIS_TYPE = 0
CLASSIFICATION_TYPE = U
NORAD_CAT_ID   = 67709
ELEMENT_SET_NO = 999
REV_AT_EPOCH   = 234
BSTAR          = -.20212585E-2
MEAN_MOTION_DOT = -.1273826E-1
MEAN_MOTION_DDOT = .53622804E-3

CCSDS_OMM_VERS = 2.0
CREATION_DATE  = 
ORIGINATOR     = 

OBJECT_NAME    = STARLINK-36344
OBJECT_ID      = 2026-025T
CENTER_NAME    = EARTH
REF_FRAME      = TEME
TIME_SYSTEM    = UTC
MEAN_ELEMENT_THEORY = SGP/SGP4

EPOCH          = 2026-02-15T22:00:01.999584
MEAN_MOTION    = 16.03367121
ECCENTRICITY   = .00014636
INCLINATION    = 97.2775
RA_OF_ASC_NODE = 157.2477
ARG_OF_PERICENTER = 67.7514
MEAN_ANOMALY   = 201.6132

EPHEMERIS_TYPE = 0
CLASSIFICATION_TYPE = U
NORAD_CAT_ID   = 67710
ELEMENT_SET_NO = 999
REV_AT_EPOCH   = 250
BSTAR          = -.21068359E-2
MEAN_MOTION_DOT = -.128962E-1
MEAN_MOTION_DDOT = .545435E-3

CCSDS_OMM_VERS = 2.0
CREATION_DATE  = 
ORIGINATOR     = 

OBJECT_NAME    = STARLINK-36687
OBJECT_ID      = 2026-025U
CENTER_NAME    = EARTH
REF_FRAME      = TEME
TIME_SYSTEM    = UTC
MEAN_ELEMENT_THEORY = SGP/SGP4

EPOCH          = 2026-02-15T22:00:01.999584
MEAN_MOTION    = 16.03594220
ECCENTRICITY   = .00014728
INCLINATION    = 97.2773
RA_OF_ASC_NODE = 157.2488
ARG_OF_PERICENTER = 70.2793
MEAN_ANOMALY   = 202.7741

EPHEMERIS_TYPE = 0
CLASSIFICATION_TYPE = U
NORAD_CAT_ID   = 67711
ELEMENT_SET_NO = 999
REV_AT_EPOCH   = 250
BSTAR          = -.20691898E-2
MEAN_MOTION_DOT = -.1283757E-1
MEAN_MOTION_DDOT = .54230247E-3

CCSDS_OMM_VERS = 2.0
CREATION_DATE  = 
ORIGINATOR     = 

OBJECT_NAME    = STARLINK-36705
OBJECT_ID      = 2026-025V
CENTER_NAME    = EARTH
REF_FRAME      = TEME
TIME_SYSTEM    = UTC
MEAN_ELEMENT_THEORY = SGP/SGP4

EPOCH          = 2026-02-15T22:00:01.999584
MEAN_MOTION    = 16.04126670
ECCENTRICITY   = .00013428
INCLINATION    = 97.2767
RA_OF_ASC_NODE = 157.2522
ARG_OF_PERICENTER = 66.4237
MEAN_ANOMALY   = 215.0973

EPHEMERIS_TYPE = 0
CLASSIFICATION_TYPE = U
NORAD_CAT_ID   = 67712
ELEMENT_SET_NO = 999
REV_AT_EPOCH   = 240
BSTAR          = -.1955745E-2
MEAN_MOTION_DOT = -.1252671E-1
MEAN_MOTION_DDOT = .52153356E-3

